{
  "type": "FeatureCollection",
  "features": [
    {
      "type": "Feature",
      "properties": {
        "norad_id": 34765,
        "name": "IRIDIUM 33 DEB",
        "group": "iridium-33-debris",
        "lat": -14.032928731669177,
        "lon": 35.74145507592263,
        "alt_km": 763.8399646423504,
        "timestamp": "2025-12-03T15:48:03.451879+00:00",
        "meta_object_name": "IRIDIUM 33 DEB",
        "meta_object_id": "1997-051LJ",
        "meta_epoch": "2025-12-02T05:08:41.186976",
        "meta_mean_motion": 14.40418764,
        "meta_eccentricity": 0.00145508,
        "meta_inclination": 86.3401,
        "meta_ra_of_asc_node": 37.2773,
        "meta_arg_of_pericenter": 249.3549,
        "meta_mean_anomaly": 173.3707,
        "meta_ephemeris_type": 0,
        "meta_classification_type": "U",
        "meta_norad_cat_id": 34765,
        "meta_element_set_no": 999,
        "meta_rev_at_epoch": 87462,
        "meta_bstar": 0.00049787542,
        "meta_mean_motion_dot": 1.602e-05,
        "meta_mean_motion_ddot": 0,
        "tle_line1": "1 34765U 97051LJ  25336.21436559  .00001602  00000+0  49788-3 0  9998",
        "tle_line2": "2 34765  86.3401  37.2773 0014550 249.3549 173.3707 14.40418764874623"
      },
      "geometry": {
        "type": "Point",
        "coordinates": [
          35.74145507592263,
          -14.032928731669177
        ]
      }
    },
    {
      "type": "Feature",
      "properties": {
        "norad_id": 34833,
        "name": "IRIDIUM 33 DEB",
        "group": "iridium-33-debris",
        "lat": 62.90102462190053,
        "lon": 61.985969413370285,
        "alt_km": 705.2446106155885,
        "timestamp": "2025-12-03T15:48:03.451888+00:00",
        "meta_object_name": "IRIDIUM 33 DEB",
        "meta_object_id": "1997-051MH",
        "meta_epoch": "2025-12-02T23:15:35.069760",
        "meta_mean_motion": 14.52273941,
        "meta_eccentricity": 0.00215243,
        "meta_inclination": 86.3939,
        "meta_ra_of_asc_node": 55.2036,
        "meta_arg_of_pericenter": 128.6325,
        "meta_mean_anomaly": 293.7121,
        "meta_ephemeris_type": 0,
        "meta_classification_type": "U",
        "meta_norad_cat_id": 34833,
        "meta_element_set_no": 999,
        "meta_rev_at_epoch": 87573,
        "meta_bstar": 0.0011259064,
        "meta_mean_motion_dot": 4.607e-05,
        "meta_mean_motion_ddot": 0,
        "tle_line1": "1 34833U 97051MH  25336.96915590  .00004607  00000+0  11259-2 0  9992",
        "tle_line2": "2 34833  86.3939  55.2036 0021524 128.6325 293.7121 14.52273941875736"
      },
      "geometry": {
        "type": "Point",
        "coordinates": [
          61.985969413370285,
          62.90102462190053
        ]
      }
    },
    {
      "type": "Feature",
      "properties": {
        "norad_id": 34870,
        "name": "IRIDIUM 33 DEB",
        "group": "iridium-33-debris",
        "lat": -26.340442595952794,
        "lon": -43.587021814688,
        "alt_km": 651.7830293109082,
        "timestamp": "2025-12-03T15:48:03.451897+00:00",
        "meta_object_name": "IRIDIUM 33 DEB",
        "meta_object_id": "1997-051MQ",
        "meta_epoch": "2025-12-01T05:36:37.151712",
        "meta_mean_motion": 14.76055324,
        "meta_eccentricity": 0.0014764,
        "meta_inclination": 86.3102,
        "meta_ra_of_asc_node": 319.3536,
        "meta_arg_of_pericenter": 227.1347,
        "meta_mean_anomaly": 190.7112,
        "meta_ephemeris_type": 0,
        "meta_classification_type": "U",
        "meta_norad_cat_id": 34870,
        "meta_element_set_no": 999,
        "meta_rev_at_epoch": 88741,
        "meta_bstar": 0.0019021,
        "meta_mean_motion_dot": 0.00013168,
        "meta_mean_motion_ddot": 0,
        "tle_line1": "1 34870U 97051MQ  25335.23376333  .00013168  00000+0  19021-2 0  9995",
        "tle_line2": "2 34870  86.3102 319.3536 0014764 227.1347 190.7112 14.76055324887418"
      },
      "geometry": {
        "type": "Point",
        "coordinates": [
          -43.587021814688,
          -26.340442595952794
        ]
      }
    },
    {
      "type": "Feature",
      "properties": {
        "norad_id": 34896,
        "name": "IRIDIUM 33 DEB",
        "group": "iridium-33-debris",
        "lat": 36.33350189857389,
        "lon": 148.05225294258784,
        "alt_km": 675.4041135415146,
        "timestamp": "2025-12-03T15:48:03.451906+00:00",
        "meta_object_name": "IRIDIUM 33 DEB",
        "meta_object_id": "1997-051MY",
        "meta_epoch": "2025-12-02T06:27:15.824160",
        "meta_mean_motion": 14.66099888,
        "meta_eccentricity": 0.0023761,
        "meta_inclination": 86.3285,
        "meta_ra_of_asc_node": 331.3819,
        "meta_arg_of_pericenter": 253.426,
        "meta_mean_anomaly": 121.6385,
        "meta_ephemeris_type": 0,
        "meta_classification_type": "U",
        "meta_norad_cat_id": 34896,
        "meta_element_set_no": 999,
        "meta_rev_at_epoch": 87466,
        "meta_bstar": 0.0012182,
        "meta_mean_motion_dot": 6.738e-05,
        "meta_mean_motion_ddot": 0,
        "tle_line1": "1 34896U 97051MY  25336.26893315  .00006738  00000+0  12182-2 0  9997",
        "tle_line2": "2 34896  86.3285 331.3819 0023761 253.4260 121.6385 14.66099888874669"
      },
      "geometry": {
        "type": "Point",
        "coordinates": [
          148.05225294258784,
          36.33350189857389
        ]
      }
    },
    {
      "type": "Feature",
      "properties": {
        "norad_id": 34926,
        "name": "IRIDIUM 33 DEB",
        "group": "iridium-33-debris",
        "lat": -83.61170181626336,
        "lon": -130.35352381095944,
        "alt_km": 692.3958999546712,
        "timestamp": "2025-12-03T15:48:03.451915+00:00",
        "meta_object_name": "IRIDIUM 33 DEB",
        "meta_object_id": "1997-051NF",
        "meta_epoch": "2025-12-02T20:58:36.078816",
        "meta_mean_motion": 14.53691359,
        "meta_eccentricity": 0.00769886,
        "meta_inclination": 86.1332,
        "meta_ra_of_asc_node": 12.8456,
        "meta_arg_of_pericenter": 326.4034,
        "meta_mean_anomaly": 157.1189,
        "meta_ephemeris_type": 0,
        "meta_classification_type": "U",
        "meta_norad_cat_id": 34926,
        "meta_element_set_no": 999,
        "meta_rev_at_epoch": 86313,
        "meta_bstar": 0.0065509461,
        "meta_mean_motion_dot": 0.00028633,
        "meta_mean_motion_ddot": 0,
        "tle_line1": "1 34926U 97051NF  25336.87402869  .00028633  00000+0  65509-2 0  9997",
        "tle_line2": "2 34926  86.1332  12.8456 0076988 326.4034 157.1189 14.53691359863134"
      },
      "geometry": {
        "type": "Point",
        "coordinates": [
          -130.35352381095944,
          -83.61170181626336
        ]
      }
    },
    {
      "type": "Feature",
      "properties": {
        "norad_id": 34985,
        "name": "IRIDIUM 33 DEB",
        "group": "iridium-33-debris",
        "lat": 65.88269531669509,
        "lon": 68.90521913460678,
        "alt_km": 759.882970286254,
        "timestamp": "2025-12-03T15:48:03.451924+00:00",
        "meta_object_name": "IRIDIUM 33 DEB",
        "meta_object_id": "1997-051NR",
        "meta_epoch": "2025-12-03T05:45:23.488416",
        "meta_mean_motion": 14.41938778,
        "meta_eccentricity": 0.0019898,
        "meta_inclination": 86.3698,
        "meta_ra_of_asc_node": 60.9312,
        "meta_arg_of_pericenter": 252.9312,
        "meta_mean_anomaly": 162.0944,
        "meta_ephemeris_type": 0,
        "meta_classification_type": "U",
        "meta_norad_cat_id": 34985,
        "meta_element_set_no": 999,
        "meta_rev_at_epoch": 87038,
        "meta_bstar": 0.0010646074,
        "meta_mean_motion_dot": 3.513e-05,
        "meta_mean_motion_ddot": 0,
        "tle_line1": "1 34985U 97051NR  25337.23985519  .00003513  00000+0  10646-2 0  9993",
        "tle_line2": "2 34985  86.3698  60.9312 0019898 252.9312 162.0944 14.41938778870385"
      },
      "geometry": {
        "type": "Point",
        "coordinates": [
          68.90521913460678,
          65.88269531669509
        ]
      }
    },
    {
      "type": "Feature",
      "properties": {
        "norad_id": 35051,
        "name": "IRIDIUM 33 DEB",
        "group": "iridium-33-debris",
        "lat": 3.281323945925657,
        "lon": -167.38998483114162,
        "alt_km": 732.811128843734,
        "timestamp": "2025-12-03T15:48:03.451933+00:00",
        "meta_object_name": "IRIDIUM 33 DEB",
        "meta_object_id": "1997-051NX",
        "meta_epoch": "2025-12-02T20:44:20.358528",
        "meta_mean_motion": 14.47524123,
        "meta_eccentricity": 0.00104766,
        "meta_inclination": 86.3255,
        "meta_ra_of_asc_node": 13.167,
        "meta_arg_of_pericenter": 117.6322,
        "meta_mean_anomaly": 242.5946,
        "meta_ephemeris_type": 0,
        "meta_classification_type": "U",
        "meta_norad_cat_id": 35051,
        "meta_element_set_no": 999,
        "meta_rev_at_epoch": 86853,
        "meta_bstar": 0.00083073982,
        "meta_mean_motion_dot": 3.075e-05,
        "meta_mean_motion_ddot": 0,
        "tle_line1": "1 35051U 97051NX  25336.86412452  .00003075  00000+0  83074-3 0  9996",
        "tle_line2": "2 35051  86.3255  13.1670 0010476 117.6322 242.5946 14.47524123868538"
      },
      "geometry": {
        "type": "Point",
        "coordinates": [
          -167.38998483114162,
          3.281323945925657
        ]
      }
    }
  ]
}